{
    "links": {
        "self": "http://www.neowsapp.com/rest/v1/neo/3170244?api_key=iIulBulltgU6a56xZRHN4H3l9WmuAYTsLGpBGhQ2"
    },
    "id": "3170244",
    "neo_reference_id": "3170244",
    "name": "(2003 YS1)",
    "designation": "2003 YS1",
    "nasa_jpl_url": "http://ssd.jpl.nasa.gov/sbdb.cgi?sstr=3170244",
    "absolute_magnitude_h": 19.6,
    "estimated_diameter": {
        "kilometers": {
            "estimated_diameter_min": 0.3195618867,
            "estimated_diameter_max": 0.7145621017
        },
        "meters": {
            "estimated_diameter_min": 319.5618867213,
            "estimated_diameter_max": 714.5621017269
        },
        "miles": {
            "estimated_diameter_min": 0.1985664891,
            "estimated_diameter_max": 0.4440081677
        },
        "feet": {
            "estimated_diameter_min": 1048.4314204307,
            "estimated_diameter_max": 2344.3639258298
        }
    },
    "is_potentially_hazardous_asteroid": false,
    "close_approach_data": [
        {
            "close_approach_date": "2003-11-19",
            "close_approach_date_full": "2003-Nov-19 16:54",
            "epoch_date_close_approach": 1069260840000,
            "relative_velocity": {
                "kilometers_per_second": "19.357304157",
                "kilometers_per_hour": "69686.2949651204",
                "miles_per_hour": "43300.3536687439"
            },
            "miss_distance": {
                "astronomical": "0.4123951823",
                "lunar": "160.4217259147",
                "kilometers": "61693440.870341701",
                "miles": "38334526.5612134338"
            },
            "orbiting_body": "Earth"
        }
    ],
    "orbital_data": {
        "orbit_id": "9",
        "orbit_determination_date": "2017-04-06 09:13:25",
        "first_observation_date": "2003-12-17",
        "last_observation_date": "2004-01-13",
        "data_arc_in_days": 27,
        "observations_used": 47,
        "orbit_uncertainty": "7",
        "minimum_orbit_intersection": ".22673",
        "jupiter_tisserand_invariant": "2.424",
        "epoch_osculation": "2459000.5",
        "eccentricity": ".8460322921470292",
        "semi_major_axis": "3.102552742115157",
        "inclination": "24.89118657661102",
        "ascending_node_longitude": "280.8287646744757",
        "orbital_period": "1996.076521941846",
        "perihelion_distance": ".4776929341964198",
        "perihelion_argument": "48.76414791426968",
        "aphelion_distance": "5.727412550033894",
        "perihelion_time": "2458883.914347423364",
        "mean_anomaly": "21.02666629571812",
        "mean_motion": ".1803538071024355",
        "equinox": "J2000",
        "orbit_class": {
            "orbit_class_type": "APO",
            "orbit_class_description": "Near-Earth asteroid orbits which cross the Earth’s orbit similar to that of 1862 Apollo",
            "orbit_class_range": "a (semi-major axis) > 1.0 AU; q (perihelion) < 1.017 AU"
        }
    },
    "is_sentry_object": false
}